NORAD_CAT_ID,OBJECT_NAME,OBJECT_TYPE,EPOCH,MEAN_MOTION,ECCENTRICITY,INCLINATION,RA_OF_ASC_NODE,ARG_OF_PERICENTER,MEAN_ANOMALY,BSTAR,MEAN_MOTION_DOT,MEAN_MOTION_DDOT,TLE_LINE0,TLE_LINE1,TLE_LINE2,SEMIMAJOR_AXIS,PERIOD,APOGEE,PERIGEE,DECAYED
53796.0,STARLINK-4721,PAYLOAD,2023-12-11 04:37:49,15.08836856,0.0001511,53.2186,332.6534,87.7058,272.4107,-3.7121e-07,-2.94e-06,0.0,0 STARLINK-4721,1 53796U 22111Z   23345.19293849 -.00000294  00000-0 -37121-6 0  9996,2 53796  53.2186 332.6534 0001511  87.7058 272.4107 15.08836856 69532,6917.89,95.438,540.8,538.71,0.0
53796.0,STARLINK-4721,PAYLOAD,2023-12-12 04:28:37,15.08834053,0.0001699,53.2178,328.1879,112.6927,247.4245,8.0643e-06,-1.6e-06,0.0,0 STARLINK-4721,1 53796U 22111Z   23346.18654022 -.00000160  00000-0  80643-5 0  9997,2 53796  53.2178 328.1879 0001699 112.6927 247.4245 15.08834053 70438,6917.899,95.438,540.939,538.588,0.0
53796.0,STARLINK-4721,PAYLOAD,2023-12-13 02:44:00,15.08839556,0.0001513,53.2179,324.0299,107.4084,252.7073,2.8441e-05,1.65e-06,0.0,0 STARLINK-4721,1 53796U 22111Z   23347.11389972  .00000165  00000-0  28441-4 0  9991,2 53796  53.2179 324.0299 0001513 107.4084 252.7073 15.08839556 69823,6917.882,95.438,540.793,538.7,0.0
53796.0,STARLINK-4721,PAYLOAD,2023-12-13 04:19:23,15.08840514,0.0001527,53.2178,323.7322,107.8661,252.2498,3.5933e-05,2.84e-06,0.0,0 STARLINK-4721,1 53796U 22111Z   23347.18013868  .00000284  00000-0  35933-4 0  9992,2 53796  53.2178 323.7322 0001527 107.8661 252.2498 15.08840514 70582,6917.879,95.438,540.8,538.687,0.0
53796.0,STARLINK-4721,PAYLOAD,2023-12-14 04:10:11,15.08833193,0.0001506,53.2174,319.273,109.8911,250.2244,5.2263e-05,5.44e-06,0.0,0 STARLINK-4721,1 53796U 22111Z   23348.17374463  .00000544  00000-0  52263-4 0  9997,2 53796  53.2174 319.2730 0001506 109.8911 250.2244 15.08833193 69982,6917.901,95.438,540.808,538.724,0.0
53796.0,STARLINK-4721,PAYLOAD,2023-12-14 05:45:34,15.08834756,0.0001405,53.2177,318.9762,95.6439,264.4714,7.8323e-05,9.59e-06,0.0,0 STARLINK-4721,1 53796U 22111Z   23348.23998376  .00000959  00000-0  78323-4 0  9994,2 53796  53.2177 318.9762 0001405  95.6439 264.4714 15.08834756 70742,6917.896,95.438,540.733,538.789,0.0
53796.0,STARLINK-4721,PAYLOAD,2023-12-15 04:00:58,15.08850415,0.0001393,53.2176,314.8122,91.7367,268.3785,-0.00017476,-3.069e-05,0.0,0 STARLINK-4721,1 53796U 22111Z   23349.16734424 -.00003069  00000-0 -17476-3 0  9997,2 53796  53.2176 314.8122 0001393  91.7367 268.3785 15.08850415 70133,6917.849,95.437,540.677,538.75,0.0
53796.0,STARLINK-4721,PAYLOAD,2023-12-15 05:36:21,15.08841497,0.0001454,53.218,314.5143,85.043,275.0729,-8.2986e-05,-1.609e-05,0.0,0 STARLINK-4721,1 53796U 22111Z   23349.23358678 -.00001609  00000-0 -82986-4 0  9995,2 53796  53.2180 314.5143 0001454  85.0430 275.0729 15.08841497 70899,6917.876,95.437,540.747,538.735,0.0
53796.0,STARLINK-4721,PAYLOAD,2023-12-16 03:51:45,15.08844663,0.0001435,53.2182,310.3506,83.86,276.2556,6.1505e-05,6.91e-06,0.0,0 STARLINK-4721,1 53796U 22111Z   23350.16093949  .00000691  00000-0  61505-4 0  9998,2 53796  53.2182 310.3506 0001435  83.8600 276.2556 15.08844663 71038,6917.866,95.437,540.724,538.738,0.0
53796.0,STARLINK-4721,PAYLOAD,2023-12-17 03:42:32,15.0883822,0.0001528,53.2184,305.8907,75.3931,284.7231,1.7338e-05,-1.2e-07,0.0,0 STARLINK-4721,1 53796U 22111Z   23351.15454537 -.00000012  00000-0  17338-4 0  9995,2 53796  53.2184 305.8907 0001528  75.3931 284.7231 15.08838220 70439,6917.886,95.438,540.808,538.694,0.0
53796.0,STARLINK-4721,PAYLOAD,2023-12-18 03:33:19,15.08841319,0.0001384,53.2179,301.4296,99.1873,260.9276,-1.6321e-05,-5.48e-06,0.0,0 STARLINK-4721,1 53796U 22111Z   23352.14814175 -.00000548  00000-0 -16321-4 0  9999,2 53796  53.2179 301.4296 0001384  99.1873 260.9276 15.08841319 71333,6917.876,95.437,540.699,538.784,0.0
53796.0,STARLINK-4721,PAYLOAD,2023-12-19 03:24:06,15.08838854,0.0001502,53.2184,296.9697,105.3538,254.762,-1.5795e-05,-5.39e-06,0.0,0 STARLINK-4721,1 53796U 22111Z   23353.14174576 -.00000539  00000-0 -15795-4 0  9998,2 53796  53.2184 296.9697 0001502 105.3538 254.7620 15.08838854 70739,6917.884,95.438,540.788,538.71,0.0
53796.0,STARLINK-4721,PAYLOAD,2023-12-20 03:14:51,15.08863494,0.0001611,53.2185,292.5082,112.3174,247.7989,0.00028858,4.311e-05,0.0,0 STARLINK-4721,1 53796U 22111Z   23354.13531839  .00004311  00000-0  28858-3 0  9990,2 53796  53.2185 292.5082 0001611 112.3174 247.7989 15.08863494 70889,6917.809,95.436,540.788,538.559,0.0
53796.0,STARLINK-4721,PAYLOAD,2023-12-21 03:05:39,15.08841996,0.0001357,53.2181,288.0501,88.1032,272.0115,-4.8071e-05,-1.053e-05,0.0,0 STARLINK-4721,1 53796U 22111Z   23355.12892890 -.00001053  00000-0 -48071-4 0  9999,2 53796  53.2181 288.0501 0001357  88.1032 272.0115 15.08841996 71034,6917.874,95.437,540.678,538.801,0.0
53796.0,STARLINK-4721,PAYLOAD,2023-12-22 02:56:27,15.08846069,0.0001421,53.2182,283.5902,82.2694,277.846,-0.00030723,-5.175e-05,0.0,0 STARLINK-4721,1 53796U 22111Z   23356.12253606 -.00005175  00000-0 -30723-3 0  9999,2 53796  53.2182 283.5902 0001421  82.2694 277.8460 15.08846069 71932,6917.862,95.437,540.71,538.744,0.0
53796.0,STARLINK-4721,PAYLOAD,2023-12-23 02:47:14,15.08824851,0.0001716,53.2185,279.1294,67.702,292.4154,8.2685e-06,-1.56e-06,0.0,0 STARLINK-4721,1 53796U 22111Z   23357.11614016 -.00000156  00000-0  82685-5 0  9994,2 53796  53.2185 279.1294 0001716  67.7020 292.4154 15.08824851 71330,6917.927,95.439,540.979,538.605,0.0
53796.0,STARLINK-4721,PAYLOAD,2023-12-23 04:22:37,15.08825503,0.0001757,53.2187,278.8296,66.544,293.5737,1.2955e-05,-8.2e-07,0.0,0 STARLINK-4721,1 53796U 22111Z   23357.18238025 -.00000082  00000-0  12955-4 0  9993,2 53796  53.2187 278.8296 0001757  66.5440 293.5737 15.08825503 72096,6917.925,95.438,541.005,538.574,0.0
53796.0,STARLINK-4721,PAYLOAD,2023-12-24 04:13:25,15.08823808,0.0001724,53.2186,274.3656,70.8076,289.3103,7.4564e-05,8.98e-06,0.0,0 STARLINK-4721,1 53796U 22111Z   23358.17598994  .00000898  00000-0  74564-4 0  9995,2 53796  53.2186 274.3656 0001724  70.8076 289.3103 15.08823808 71492,6917.93,95.439,540.988,538.602,0.0
53796.0,STARLINK-4721,PAYLOAD,2023-12-24 18:31:53,15.08832677,0.0001348,53.2167,271.6927,106.7808,253.3332,8.7496e-05,1.105e-05,0.0,0 STARLINK-4721,1 53796U 22111Z   23358.77214615  .00001105  00000-0  87496-4 0  9996,2 53796  53.2167 271.6927 0001348 106.7808 253.3332 15.08832677 71585,6917.903,95.438,540.7,538.835,0.0
53796.0,STARLINK-4721,PAYLOAD,2023-12-24 21:42:39,15.08836962,0.0001414,53.2173,271.0983,110.919,249.1954,0.00010386,1.365e-05,0.0,0 STARLINK-4721,1 53796U 22111Z   23358.90462316  .00001365  00000-0  10386-3 0  9995,2 53796  53.2173 271.0983 0001414 110.9190 249.1954 15.08836962 72353,6917.89,95.438,540.733,538.776,0.0
53796.0,STARLINK-4721,PAYLOAD,2023-12-25 04:04:12,15.08830918,0.0001227,53.2166,269.9113,96.0132,264.1,9.0895e-05,1.159e-05,0.0,0 STARLINK-4721,1 53796U 22111Z   23359.16958952  .00001159  00000-0  90895-4 0  9995,2 53796  53.2166 269.9113 0001227  96.0132 264.1000 15.08830918 72396,6917.908,95.438,540.622,538.924,0.0
53796.0,STARLINK-4721,PAYLOAD,2023-12-25 21:33:27,15.08833471,0.000129,53.2163,266.6395,99.9498,260.164,-9.3603e-06,-4.37e-06,0.0,0 STARLINK-4721,1 53796U 22111Z   23359.89823548 -.00000437  00000-0 -93603-5 0  9998,2 53796  53.2163 266.6395 0001290  99.9498 260.1640 15.08833471 72502,6917.9,95.438,540.658,538.873,0.0
53796.0,STARLINK-4721,PAYLOAD,2023-12-26 03:54:59,15.08836348,0.0001297,53.2165,265.4498,95.7035,264.4105,1.8966e-05,1.4e-07,0.0,0 STARLINK-4721,1 53796U 22111Z   23360.16319354  .00000014  00000-0  18966-4 0  9992,2 53796  53.2165 265.4498 0001297  95.7035 264.4105 15.08836348 71792,6917.892,95.438,540.654,538.859,0.0
53796.0,STARLINK-4721,PAYLOAD,2023-12-26 21:24:15,15.08790375,0.0001691,53.2164,262.1785,97.6671,262.4513,0.00055644,8.567e-05,0.0,0 STARLINK-4721,1 53796U 22111Z   23360.89184318  .00008567  00000-0  55644-3 0  9996,2 53796  53.2164 262.1785 0001691  97.6671 262.4513 15.08790375 72655,6918.032,95.441,541.067,538.727,0.0
53796.0,STARLINK-4721,PAYLOAD,2023-12-27 18:04:15,15.08836975,0.0001297,53.2166,258.3126,98.4712,261.6427,2.5711e-05,1.21e-06,0.0,0 STARLINK-4721,1 53796U 22111Z   23361.75295736  .00000121  00000-0  25711-4 0  9990,2 53796  53.2166 258.3126 0001297  98.4712 261.6427 15.08836975 72034,6917.89,95.438,540.652,538.857,0.0
53796.0,STARLINK-4721,PAYLOAD,2023-12-27 21:15:01,15.08835829,0.0001307,53.2166,257.7178,99.5415,260.5725,1.5805e-05,-3.6e-07,0.0,0 STARLINK-4721,1 53796U 22111Z   23361.88543841 -.00000036  00000-0  15805-4 0  9996,2 53796  53.2166 257.7178 0001307  99.5415 260.5725 15.08835829 72809,6917.893,95.438,540.662,538.854,0.0
53796.0,STARLINK-4721,PAYLOAD,2023-12-28 02:01:11,15.08835322,0.0001286,53.2167,256.8259,94.3239,265.79,8.9501e-06,-1.45e-06,0.0,0 STARLINK-4721,1 53796U 22111Z   23362.08415970 -.00000145  00000-0  89501-5 0  9996,2 53796  53.2167 256.8259 0001286  94.3239 265.7900 15.08835322 72836,6917.895,95.438,540.649,538.87,0.0
53796.0,STARLINK-4721,PAYLOAD,2023-12-28 22:41:12,15.0883839,0.0001294,53.2167,252.9599,94.6793,265.4347,3.4001e-05,2.53e-06,0.0,0 STARLINK-4721,1 53796U 22111Z   23362.94527868  .00000253  00000-0  34001-4 0  9994,2 53796  53.2167 252.9599 0001294  94.6793 265.4347 15.08838390 72961,6917.885,95.438,540.645,538.855,0.0
53796.0,STARLINK-4721,PAYLOAD,2023-12-29 01:51:58,15.08839193,0.0001292,53.2166,252.3653,94.2733,265.8407,3.9349e-05,3.38e-06,0.0,0 STARLINK-4721,1 53796U 22111Z   23363.07775806  .00000338  00000-0  39349-4 0  9990,2 53796  53.2166 252.3653 0001292  94.2733 265.8407 15.08839193 72236,6917.883,95.438,540.642,538.854,0.0
53796.0,STARLINK-4721,PAYLOAD,2023-12-29 22:31:57,15.08854974,0.0001315,53.2164,248.4999,90.7303,269.384,0.00018386,2.641e-05,0.0,0 STARLINK-4721,1 53796U 22111Z   23363.93886300  .00002641  00000-0  18386-3 0  9993,2 53796  53.2164 248.4999 0001315  90.7303 269.3840 15.08854974 73115,6917.835,95.437,540.609,538.79,0.0
